{"type": "FeatureCollection", "features": [ {"type": "Feature", "properties": {"norad_id": 39574, "name": "GPM-CORE", "group": "resource", "lat": 9.50740674040342, "lon": -135.7364178876543, "alt_km": 431.9987702587814, "timestamp": "2025-12-10T14:53:36.779625+00:00", "meta": {"OBJECT_NAME": "GPM-CORE", "OBJECT_ID": "2014-009C", "EPOCH": "2025-12-10T07:04:59.088576", "MEAN_MOTION": 15.45475564, "ECCENTRICITY": 0.00105136, "INCLINATION": 64.9736, "RA_OF_ASC_NODE": 220.8667, "ARG_OF_PERICENTER": 270.1969, "MEAN_ANOMALY": 89.7967, "EPHEMERIS_TYPE": 0, "CLASSIFICATION_TYPE": "U", "NORAD_CAT_ID": 39574, "ELEMENT_SET_NO": 999, "REV_AT_EPOCH": 66863, "BSTAR": 0.00038863103, "MEAN_MOTION_DOT": 0.0001856, "MEAN_MOTION_DDOT": 0}, "tle": {"line1": "1 39574U 14009C   25344.29512834  .00018560  00000+0  38863-3 0  9994", "line2": "2 39574  64.9736 220.8667 0010513 270.1969  89.7967 15.45475564668631"}}, "geometry": {"type": "Point", "coordinates": [-135.7364178876543, 9.50740674040342]}}, {"type": "Feature", "properties": {"norad_id": 39634, "name": "SENTINEL-1A", "group": "resource", "lat": 21.36301886320864, "lon": 173.1183565889711, "alt_km": 695.3734767614278, "timestamp": "2025-12-10T14:53:36.779634+00:00", "meta": {"OBJECT_NAME": "SENTINEL-1A", "OBJECT_ID": "2014-016A", "EPOCH": "2025-12-10T07:35:15.837792", "MEAN_MOTION": 14.59201338, "ECCENTRICITY": 0.00012677, "INCLINATION": 98.1802, "RA_OF_ASC_NODE": 349.593, "ARG_OF_PERICENTER": 83.8943, "MEAN_ANOMALY": 276.2401, "EPHEMERIS_TYPE": 0, "CLASSIFICATION_TYPE": "U", "NORAD_CAT_ID": 39634, "ELEMENT_SET_NO": 999, "REV_AT_EPOCH": 62247, "BSTAR": 8.6692207e-05, "MEAN_MOTION_DOT": 3.63e-06, "MEAN_MOTION_DDOT": 0}, "tle": {"line1": "1 39634U 14016A   25344.31615553  .00000363  00000+0  86692-4 0  9990", "line2": "2 39634  98.1802 349.5930 0001267  83.8943 276.2401 14.59201338622478"}}, "geometry": {"type": "Point", "coordinates": [173.1183565889711, 21.36301886320864]}}, {"type": "Feature", "properties": {"norad_id": 39731, "name": "KAZEOSAT 1", "group": "resource", "lat": -79.34244139207594, "lon": -174.66863433717845, "alt_km": 759.7982043354359, "timestamp": "2025-12-10T14:53:36.779643+00:00", "meta": {"OBJECT_NAME": "KAZEOSAT 1", "OBJECT_ID": "2014-024A", "EPOCH": "2025-12-10T07:00:54.146304", "MEAN_MOTION": 14.42060545, "ECCENTRICITY": 0.00010956, "INCLINATION": 98.3432, "RA_OF_ASC_NODE": 56.2543, "ARG_OF_PERICENTER": 95.154, "MEAN_ANOMALY": 264.9775, "EPHEMERIS_TYPE": 0, "CLASSIFICATION_TYPE": "U", "NORAD_CAT_ID": 39731, "ELEMENT_SET_NO": 999, "REV_AT_EPOCH": 61133, "BSTAR": 0.00014328836, "MEAN_MOTION_DOT": 4.28e-06, "MEAN_MOTION_DDOT": 0}, "tle": {"line1": "1 39731U 14024A   25344.29229336  .00000428  00000+0  14329-3 0  9993", "line2": "2 39731  98.3432  56.2543 0001095  95.1540 264.9775 14.42060545611333"}}, "geometry": {"type": "Point", "coordinates": [-174.66863433717845, -79.34244139207594]}}, {"type": "Feature", "properties": {"norad_id": 39766, "name": "ALOS-2", "group": "resource", "lat": -42.17621861112795, "lon": -107.75138686499884, "alt_km": 638.2178281381111, "timestamp": "2025-12-10T14:53:36.779652+00:00", "meta": {"OBJECT_NAME": "ALOS-2", "OBJECT_ID": "2014-029A", "EPOCH": "2025-12-10T05:46:28.852608", "MEAN_MOTION": 14.79467586, "ECCENTRICITY": 0.00014906, "INCLINATION": 97.9226, "RA_OF_ASC_NODE": 79.1222, "ARG_OF_PERICENTER": 99.3243, "MEAN_ANOMALY": 260.8137, "EPHEMERIS_TYPE": 0, "CLASSIFICATION_TYPE": "U", "NORAD_CAT_ID": 39766, "ELEMENT_SET_NO": 999, "REV_AT_EPOCH": 62364, "BSTAR": 0.00054156257, "MEAN_MOTION_DOT": 3.995e-05, "MEAN_MOTION_DDOT": 0}, "tle": {"line1": "1 39766U 14029A   25344.24061172  .00003995  00000+0  54156-3 0  9997", "line2": "2 39766  97.9226  79.1222 0001490  99.3243 260.8137 14.79467586623640"}}, "geometry": {"type": "Point", "coordinates": [-107.75138686499884, -42.17621861112795]}}, {"type": "Feature", "properties": {"norad_id": 40010, "name": "KAZEOSAT 2", "group": "resource", "lat": 82.40980969897451, "lon": 104.56809539178391, "alt_km": 608.6410215596843, "timestamp": "2025-12-10T14:53:36.779661+00:00", "meta": {"OBJECT_NAME": "KAZEOSAT 2", "OBJECT_ID": "2014-033A", "EPOCH": "2025-12-10T06:24:27.562752", "MEAN_MOTION": 14.85161322, "ECCENTRICITY": 0.00075204, "INCLINATION": 97.5503, "RA_OF_ASC_NODE": 188.7088, "ARG_OF_PERICENTER": 215.6821, "MEAN_ANOMALY": 144.3893, "EPHEMERIS_TYPE": 0, "CLASSIFICATION_TYPE": "U", "NORAD_CAT_ID": 40010, "ELEMENT_SET_NO": 999, "REV_AT_EPOCH": 62091, "BSTAR": 0.00015744825, "MEAN_MOTION_DOT": 1.298e-05, "MEAN_MOTION_DDOT": 0}, "tle": {"line1": "1 40010U 14033A   25344.26698568  .00001298  00000+0  15745-3 0  9998", "line2": "2 40010  97.5503 188.7088 0007520 215.6821 144.3893 14.85161322620918"}}, "geometry": {"type": "Point", "coordinates": [104.56809539178391, 82.40980969897451]}}, {"type": "Feature", "properties": {"norad_id": 40011, "name": "HODOYOSHI-4", "group": "resource", "lat": 20.398363017099648, "lon": -3.56740143001831, "alt_km": 595.275886626735, "timestamp": "2025-12-10T14:53:36.779671+00:00", "meta": {"OBJECT_NAME": "HODOYOSHI-4", "OBJECT_ID": "2014-033B", "EPOCH": "2025-12-10T06:06:20.778624", "MEAN_MOTION": 14.87462433, "ECCENTRICITY": 0.00230413, "INCLINATION": 97.5414, "RA_OF_ASC_NODE": 173.2609, "ARG_OF_PERICENTER": 209.2276, "MEAN_ANOMALY": 150.7653, "EPHEMERIS_TYPE": 0, "CLASSIFICATION_TYPE": "U", "NORAD_CAT_ID": 40011, "ELEMENT_SET_NO": 999, "REV_AT_EPOCH": 62071, "BSTAR": 9.9380017e-05, "MEAN_MOTION_DOT": 8.52e-06, "MEAN_MOTION_DDOT": 0}, "tle": {"line1": "1 40011U 14033B   25344.25440716  .00000852  00000+0  99380-4 0  9991", "line2": "2 40011  97.5414 173.2609 0023041 209.2276 150.7653 14.87462433620719"}}, "geometry": {"type": "Point", "coordinates": [-3.56740143001831, 20.398363017099648]}}, {"type": "Feature", "properties": {"norad_id": 40013, "name": "DEIMOS-2", "group": "resource", "lat": -80.95837423216686, "lon": -82.3947472044127, "alt_km": 596.774542355196, "timestamp": "2025-12-10T14:53:36.779680+00:00", "meta": {"OBJECT_NAME": "DEIMOS-2", "OBJECT_ID": "2014-033D", "EPOCH": "2025-12-10T05:37:23.013696", "MEAN_MOTION": 14.92954088, "ECCENTRICITY": 9.989e-05, "INCLINATION": 97.6062, "RA_OF_ASC_NODE": 220.1176, "ARG_OF_PERICENTER": 87.0173, "MEAN_ANOMALY": 273.1161, "EPHEMERIS_TYPE": 0, "CLASSIFICATION_TYPE": "U", "NORAD_CAT_ID": 40013, "ELEMENT_SET_NO": 999, "REV_AT_EPOCH": 60952, "BSTAR": 0.00017590342, "MEAN_MOTION_DOT": 1.772e-05, "MEAN_MOTION_DDOT": 0}, "tle": {"line1": "1 40013U 14033D   25344.23429414  .00001772  00000+0  17590-3 0  9997", "line2": "2 40013  97.6062 220.1176 0000998  87.0173 273.1161 14.92954088609524"}}, "geometry": {"type": "Point", "coordinates": [-82.3947472044127, -80.95837423216686]}}, {"type": "Feature", "properties": {"norad_id": 40015, "name": "HODOYOSHI-3", "group": "resource", "lat": 73.11803408082318, "lon": -3.2761632864339747, "alt_km": 626.5248080109905, "timestamp": "2025-12-10T14:53:36.779689+00:00", "meta": {"OBJECT_NAME": "HODOYOSHI-3", "OBJECT_ID": "2014-033F", "EPOCH": "2025-12-10T06:19:57.684576", "MEAN_MOTION": 14.84793653, "ECCENTRICITY": 0.00318355, "INCLINATION": 97.62, "RA_OF_ASC_NODE": 150.2067, "ARG_OF_PERICENTER": 256.4345, "MEAN_ANOMALY": 103.3323, "EPHEMERIS_TYPE": 0, "CLASSIFICATION_TYPE": "U", "NORAD_CAT_ID": 40015, "ELEMENT_SET_NO": 999, "REV_AT_EPOCH": 61958, "BSTAR": 0.00032856209, "MEAN_MOTION_DOT": 2.761e-05, "MEAN_MOTION_DDOT": 0}, "tle": {"line1": "1 40015U 14033F   25344.26386209  .00002761  00000+0  32856-3 0  9997", "line2": "2 40015  97.6200 150.2067 0031835 256.4345 103.3323 14.84793653619580"}}, "geometry": {"type": "Point", "coordinates": [-3.2761632864339747, 73.11803408082318]}}, {"type": "Feature", "properties": {"norad_id": 40053, "name": "SPOT 7", "group": "resource", "lat": 11.035254120213928, "lon": 45.15522107688134, "alt_km": 692.0148846060429, "timestamp": "2025-12-10T14:53:36.779699+00:00", "meta": {"OBJECT_NAME": "SPOT 7", "OBJECT_ID": "2014-034A", "EPOCH": "2025-12-10T06:37:21.699840", "MEAN_MOTION": 14.60728575, "ECCENTRICITY": 0.0001567, "INCLINATION": 98.0905, "RA_OF_ASC_NODE": 46.4082, "ARG_OF_PERICENTER": 89.3482, "MEAN_ANOMALY": 270.7899, "EPHEMERIS_TYPE": 0, "CLASSIFICATION_TYPE": "U", "NORAD_CAT_ID": 40053, "ELEMENT_SET_NO": 999, "REV_AT_EPOCH": 60955, "BSTAR": 0.00016733994, "MEAN_MOTION_DOT": 7.7e-06, "MEAN_MOTION_DDOT": 0}, "tle": {"line1": "1 40053U 14034A   25344.27594560  .00000770  00000+0  16734-3 0  9997", "line2": "2 40053  98.0905  46.4082 0001567  89.3482 270.7899 14.60728575609554"}}, "geometry": {"type": "Point", "coordinates": [45.15522107688134, 11.035254120213928]}}, {"type": "Feature", "properties": {"norad_id": 40072, "name": "SKYSAT-B", "group": "resource", "lat": 74.06124620301641, "lon": 139.20994857601139, "alt_km": 596.7293181813247, "timestamp": "2025-12-10T14:53:36.779708+00:00", "meta": {"OBJECT_NAME": "SKYSAT-B", "OBJECT_ID": "2014-037D", "EPOCH": "2025-12-10T06:21:22.463712", "MEAN_MOTION": 14.87313046, "ECCENTRICITY": 0.00059569, "INCLINATION": 98.3609, "RA_OF_ASC_NODE": 287.8401, "ARG_OF_PERICENTER": 157.6415, "MEAN_ANOMALY": 202.506, "EPHEMERIS_TYPE": 0, "CLASSIFICATION_TYPE": "U", "NORAD_CAT_ID": 40072, "ELEMENT_SET_NO": 999, "REV_AT_EPOCH": 61787, "BSTAR": 0.00035871286, "MEAN_MOTION_DOT": 3.178e-05, "MEAN_MOTION_DDOT": 0}, "tle": {"line1": "1 40072U 14037D   25344.26484333  .00003178  00000+0  35871-3 0  9994", "line2": "2 40072  98.3609 287.8401 0005956 157.6415 202.5060 14.87313046617875"}}, "geometry": {"type": "Point", "coordinates": [139.20994857601139, 74.06124620301641]}}]}